[{"OBJECT_NAME":"CARTOSAT-2F","OBJECT_ID":"2018-004A","EPOCH":"2026-03-09T22:50:21.052320","MEAN_MOTION":15.19266774,"ECCENTRICITY":8.279e-5,"INCLINATION":97.4159,"RA_OF_ASC_NODE":130.1064,"ARG_OF_PERICENTER":205.5127,"MEAN_ANOMALY":154.6067,"EPHEMERIS_TYPE":0,"CLASSIFICATION_TYPE":"U","NORAD_CAT_ID":43111,"ELEMENT_SET_NO":999,"REV_AT_EPOCH":45226,"BSTAR":0.00021023893,"MEAN_MOTION_DOT":4.366e-5,"MEAN_MOTION_DDOT":0},{"OBJECT_NAME":"IRIDE FM7","OBJECT_ID":"2025-276AM","EPOCH":"2026-03-09T18:04:05.183328","MEAN_MOTION":15.18866259,"ECCENTRICITY":0.0003982,"INCLINATION":97.4286,"RA_OF_ASC_NODE":144.0153,"ARG_OF_PERICENTER":10.7537,"MEAN_ANOMALY":349.3782,"EPHEMERIS_TYPE":0,"CLASSIFICATION_TYPE":"U","NORAD_CAT_ID":66701,"ELEMENT_SET_NO":999,"REV_AT_EPOCH":1532,"BSTAR":0.00050729395,"MEAN_MOTION_DOT":0.00010516,"MEAN_MOTION_DDOT":0}]
